STARLINK-31926          
1 59879U 24098X   26068.95670227  .00009866  00000+0  36545-3 0  9995
2 59879  42.9990 265.9804 0001255 279.3622  80.7088 15.27769593102009
KUIPER-00226            
1 67785U 26030X   26068.62629313  .00046834  00000+0  15530-2 0  9998
2 67785  51.8814 220.1252 0017713  64.2781 296.0030 15.30655594  5078
